{
"type": "FeatureCollection",
"name": "cemaden_municipios_icones",
"crs": { "type": "name", "properties": { "name": "urn:ogc:def:crs:EPSG::4674" } },
"features": [
{ "type": "Feature", "properties": { "tipo_icone": "hidro", "municipio": "Otacílio Costa", "uf": "SC", "codibge": "4211751", "nivel_max": "alto", "severity_group": "alto", "total_alertas": 1 }, "geometry": { "type": "Point", "coordinates": [ -50.008803661374877, -27.4976205245 ] } },
{ "type": "Feature", "properties": { "tipo_icone": "geo", "municipio": "Santa Maria", "uf": "RS", "codibge": "4316907", "nivel_max": "moderado", "severity_group": "moderado", "total_alertas": 1 }, "geometry": { "type": "Point", "coordinates": [ -53.770305857570406, -29.777569374500001 ] } },
{ "type": "Feature", "properties": { "tipo_icone": "hidro", "municipio": "Santa Cruz do Sul", "uf": "RS", "codibge": "4316808", "nivel_max": "moderado", "severity_group": "moderado", "total_alertas": 2 }, "geometry": { "type": "Point", "coordinates": [ -52.402170432406422, -29.646958647 ] } },
{ "type": "Feature", "properties": { "tipo_icone": "geo", "municipio": "Santa Cruz do Sul", "uf": "RS", "codibge": "4316808", "nivel_max": "moderado", "severity_group": "moderado", "total_alertas": 2 }, "geometry": { "type": "Point", "coordinates": [ -52.402170432406422, -29.646958647 ] } },
{ "type": "Feature", "properties": { "tipo_icone": "hidro", "municipio": "Cachoeira do Sul", "uf": "RS", "codibge": "4303004", "nivel_max": "alto", "severity_group": "alto", "total_alertas": 1 }, "geometry": { "type": "Point", "coordinates": [ -53.007862971678129, -30.235685828500003 ] } },
{ "type": "Feature", "properties": { "tipo_icone": "hidro", "municipio": "Umuarama", "uf": "PR", "codibge": "4128104", "nivel_max": "moderado", "severity_group": "moderado", "total_alertas": 1 }, "geometry": { "type": "Point", "coordinates": [ -53.333553444956337, -23.707101858 ] } },
{ "type": "Feature", "properties": { "tipo_icone": "geo", "municipio": "Barra do Guarita", "uf": "RS", "codibge": "4301859", "nivel_max": "moderado", "severity_group": "moderado", "total_alertas": 1 }, "geometry": { "type": "Point", "coordinates": [ -53.750905280276328, -27.213265434499995 ] } },
{ "type": "Feature", "properties": { "tipo_icone": "hidro", "municipio": "São Borja", "uf": "RS", "codibge": "4318002", "nivel_max": "alto", "severity_group": "alto", "total_alertas": 1 }, "geometry": { "type": "Point", "coordinates": [ -55.840834281971027, -28.714265923 ] } },
{ "type": "Feature", "properties": { "tipo_icone": "hidro", "municipio": "Itaqui", "uf": "RS", "codibge": "4310603", "nivel_max": "alto", "severity_group": "alto", "total_alertas": 1 }, "geometry": { "type": "Point", "coordinates": [ -56.389820549322302, -29.137636298499991 ] } },
{ "type": "Feature", "properties": { "tipo_icone": "hidro", "municipio": "Uruguaiana", "uf": "RS", "codibge": "4322400", "nivel_max": "alto", "severity_group": "alto", "total_alertas": 1 }, "geometry": { "type": "Point", "coordinates": [ -56.814308006888403, -29.800457825499993 ] } },
{ "type": "Feature", "properties": { "tipo_icone": "hidro", "municipio": "Campos do Jordão", "uf": "SP", "codibge": "3509700", "nivel_max": "moderado", "severity_group": "moderado", "total_alertas": 1 }, "geometry": { "type": "Point", "coordinates": [ -45.519519084508701, -22.693015750499995 ] } },
{ "type": "Feature", "properties": { "tipo_icone": "hidro", "municipio": "São José dos Campos", "uf": "SP", "codibge": "3549904", "nivel_max": "moderado", "severity_group": "moderado", "total_alertas": 2 }, "geometry": { "type": "Point", "coordinates": [ -45.958401234096485, -23.057310499 ] } },
{ "type": "Feature", "properties": { "tipo_icone": "geo", "municipio": "São José dos Campos", "uf": "SP", "codibge": "3549904", "nivel_max": "moderado", "severity_group": "moderado", "total_alertas": 2 }, "geometry": { "type": "Point", "coordinates": [ -45.958401234096485, -23.057310499 ] } },
{ "type": "Feature", "properties": { "tipo_icone": "hidro", "municipio": "Guaratinguetá", "uf": "SP", "codibge": "3518404", "nivel_max": "moderado", "severity_group": "moderado", "total_alertas": 1 }, "geometry": { "type": "Point", "coordinates": [ -45.257955916234884, -22.812822863500003 ] } },
{ "type": "Feature", "properties": { "tipo_icone": "hidro", "municipio": "Areias", "uf": "SP", "codibge": "3503505", "nivel_max": "moderado", "severity_group": "moderado", "total_alertas": 1 }, "geometry": { "type": "Point", "coordinates": [ -44.724873728893044, -22.67938001 ] } },
{ "type": "Feature", "properties": { "tipo_icone": "hidro", "municipio": "São Paulo", "uf": "SP", "codibge": "3550308", "nivel_max": "moderado", "severity_group": "moderado", "total_alertas": 1 }, "geometry": { "type": "Point", "coordinates": [ -46.717054522714349, -23.683385999 ] } },
{ "type": "Feature", "properties": { "tipo_icone": "hidro", "municipio": "Alumínio", "uf": "SP", "codibge": "3501152", "nivel_max": "moderado", "severity_group": "moderado", "total_alertas": 1 }, "geometry": { "type": "Point", "coordinates": [ -47.269832481476037, -23.537328944499997 ] } },
{ "type": "Feature", "properties": { "tipo_icone": "hidro", "municipio": "Cabreúva", "uf": "SP", "codibge": "3508405", "nivel_max": "moderado", "severity_group": "moderado", "total_alertas": 1 }, "geometry": { "type": "Point", "coordinates": [ -47.066899780511108, -23.3148965675 ] } },
{ "type": "Feature", "properties": { "tipo_icone": "hidro", "municipio": "Francisco Morato", "uf": "SP", "codibge": "3516309", "nivel_max": "moderado", "severity_group": "moderado", "total_alertas": 1 }, "geometry": { "type": "Point", "coordinates": [ -46.728444688563748, -23.276188499 ] } },
{ "type": "Feature", "properties": { "tipo_icone": "hidro", "municipio": "Franco da Rocha", "uf": "SP", "codibge": "3516408", "nivel_max": "moderado", "severity_group": "moderado", "total_alertas": 1 }, "geometry": { "type": "Point", "coordinates": [ -46.734370888751798, -23.312753999 ] } },
{ "type": "Feature", "properties": { "tipo_icone": "hidro", "municipio": "Guararema", "uf": "SP", "codibge": "3518305", "nivel_max": "moderado", "severity_group": "moderado", "total_alertas": 1 }, "geometry": { "type": "Point", "coordinates": [ -46.06649718913178, -23.424867830500006 ] } },
{ "type": "Feature", "properties": { "tipo_icone": "hidro", "municipio": "Guarulhos", "uf": "SP", "codibge": "3518800", "nivel_max": "moderado", "severity_group": "moderado", "total_alertas": 1 }, "geometry": { "type": "Point", "coordinates": [ -46.459513972617941, -23.390811499 ] } },
{ "type": "Feature", "properties": { "tipo_icone": "hidro", "municipio": "Itaquaquecetuba", "uf": "SP", "codibge": "3523107", "nivel_max": "moderado", "severity_group": "moderado", "total_alertas": 1 }, "geometry": { "type": "Point", "coordinates": [ -46.338638459375929, -23.463005781 ] } },
{ "type": "Feature", "properties": { "tipo_icone": "hidro", "municipio": "Mairinque", "uf": "SP", "codibge": "3528403", "nivel_max": "moderado", "severity_group": "moderado", "total_alertas": 1 }, "geometry": { "type": "Point", "coordinates": [ -47.197893734883252, -23.518856999 ] } },
{ "type": "Feature", "properties": { "tipo_icone": "hidro", "municipio": "Mairiporã", "uf": "SP", "codibge": "3528502", "nivel_max": "moderado", "severity_group": "moderado", "total_alertas": 1 }, "geometry": { "type": "Point", "coordinates": [ -46.545590864925444, -23.327931499 ] } },
{ "type": "Feature", "properties": { "tipo_icone": "hidro", "municipio": "Mogi das Cruzes", "uf": "SP", "codibge": "3530607", "nivel_max": "moderado", "severity_group": "moderado", "total_alertas": 1 }, "geometry": { "type": "Point", "coordinates": [ -46.190865964389758, -23.557702648 ] } },
{ "type": "Feature", "properties": { "tipo_icone": "hidro", "municipio": "Santana de Parnaíba", "uf": "SP", "codibge": "3547304", "nivel_max": "moderado", "severity_group": "moderado", "total_alertas": 1 }, "geometry": { "type": "Point", "coordinates": [ -46.910244758439738, -23.447000999 ] } },
{ "type": "Feature", "properties": { "tipo_icone": "hidro", "municipio": "Cerquilho", "uf": "SP", "codibge": "3511508", "nivel_max": "moderado", "severity_group": "moderado", "total_alertas": 1 }, "geometry": { "type": "Point", "coordinates": [ -47.748254986790442, -23.188336184 ] } },
{ "type": "Feature", "properties": { "tipo_icone": "hidro", "municipio": "Cesário Lange", "uf": "SP", "codibge": "3511607", "nivel_max": "moderado", "severity_group": "moderado", "total_alertas": 1 }, "geometry": { "type": "Point", "coordinates": [ -47.893540275067977, -23.217259590499999 ] } },
{ "type": "Feature", "properties": { "tipo_icone": "hidro", "municipio": "Iperó", "uf": "SP", "codibge": "3521002", "nivel_max": "moderado", "severity_group": "moderado", "total_alertas": 1 }, "geometry": { "type": "Point", "coordinates": [ -47.616632659138851, -23.405509454499992 ] } },
{ "type": "Feature", "properties": { "tipo_icone": "hidro", "municipio": "Itu", "uf": "SP", "codibge": "3523909", "nivel_max": "moderado", "severity_group": "moderado", "total_alertas": 1 }, "geometry": { "type": "Point", "coordinates": [ -47.28662430556723, -23.295735577 ] } },
{ "type": "Feature", "properties": { "tipo_icone": "hidro", "municipio": "Sorocaba", "uf": "SP", "codibge": "3552205", "nivel_max": "moderado", "severity_group": "moderado", "total_alertas": 1 }, "geometry": { "type": "Point", "coordinates": [ -47.441663444903909, -23.471494999 ] } },
{ "type": "Feature", "properties": { "tipo_icone": "hidro", "municipio": "Votorantim", "uf": "SP", "codibge": "3557006", "nivel_max": "moderado", "severity_group": "moderado", "total_alertas": 1 }, "geometry": { "type": "Point", "coordinates": [ -47.402277210952136, -23.583538953500003 ] } },
{ "type": "Feature", "properties": { "tipo_icone": "hidro", "municipio": "Barra Mansa", "uf": "RJ", "codibge": "3300407", "nivel_max": "moderado", "severity_group": "moderado", "total_alertas": 1 }, "geometry": { "type": "Point", "coordinates": [ -44.197852613643249, -22.485756111 ] } },
{ "type": "Feature", "properties": { "tipo_icone": "hidro", "municipio": "Resende", "uf": "RJ", "codibge": "3304201", "nivel_max": "moderado", "severity_group": "moderado", "total_alertas": 1 }, "geometry": { "type": "Point", "coordinates": [ -44.420460271220207, -22.44243214 ] } },
{ "type": "Feature", "properties": { "tipo_icone": "hidro", "municipio": "Carapicuíba", "uf": "SP", "codibge": "3510609", "nivel_max": "moderado", "severity_group": "moderado", "total_alertas": 1 }, "geometry": { "type": "Point", "coordinates": [ -46.841784818263953, -23.548152499 ] } },
{ "type": "Feature", "properties": { "tipo_icone": "hidro", "municipio": "Cotia", "uf": "SP", "codibge": "3513009", "nivel_max": "moderado", "severity_group": "moderado", "total_alertas": 1 }, "geometry": { "type": "Point", "coordinates": [ -46.980088110687859, -23.683254151 ] } },
{ "type": "Feature", "properties": { "tipo_icone": "hidro", "municipio": "Embu das Artes", "uf": "SP", "codibge": "3515004", "nivel_max": "moderado", "severity_group": "moderado", "total_alertas": 1 }, "geometry": { "type": "Point", "coordinates": [ -46.853431055787439, -23.648317044500004 ] } },
{ "type": "Feature", "properties": { "tipo_icone": "hidro", "municipio": "Itapecerica da Serra", "uf": "SP", "codibge": "3522208", "nivel_max": "moderado", "severity_group": "moderado", "total_alertas": 1 }, "geometry": { "type": "Point", "coordinates": [ -46.864462156738995, -23.735965214499998 ] } },
{ "type": "Feature", "properties": { "tipo_icone": "hidro", "municipio": "Itapevi", "uf": "SP", "codibge": "3522505", "nivel_max": "moderado", "severity_group": "moderado", "total_alertas": 1 }, "geometry": { "type": "Point", "coordinates": [ -46.961134578286021, -23.550717999 ] } },
{ "type": "Feature", "properties": { "tipo_icone": "hidro", "municipio": "Jandira", "uf": "SP", "codibge": "3525003", "nivel_max": "moderado", "severity_group": "moderado", "total_alertas": 1 }, "geometry": { "type": "Point", "coordinates": [ -46.904921967539437, -23.540789201500001 ] } },
{ "type": "Feature", "properties": { "tipo_icone": "hidro", "municipio": "Osasco", "uf": "SP", "codibge": "3534401", "nivel_max": "moderado", "severity_group": "moderado", "total_alertas": 1 }, "geometry": { "type": "Point", "coordinates": [ -46.788711535958186, -23.534733499 ] } },
{ "type": "Feature", "properties": { "tipo_icone": "hidro", "municipio": "Taboão da Serra", "uf": "SP", "codibge": "3552809", "nivel_max": "moderado", "severity_group": "moderado", "total_alertas": 1 }, "geometry": { "type": "Point", "coordinates": [ -46.787375797795235, -23.621038639499993 ] } },
{ "type": "Feature", "properties": { "tipo_icone": "hidro", "municipio": "Juiz de Fora", "uf": "MG", "codibge": "3136702", "nivel_max": "moderado", "severity_group": "moderado", "total_alertas": 1 }, "geometry": { "type": "Point", "coordinates": [ -43.450997967359626, -21.759089495 ] } }
]
}
